{"type": "FeatureCollection", "features": [ {"type": "Feature", "properties": {"norad_id": 41549, "name": "GSAT0211 (GALILEO 14)", "group": "gnss", "lat": -44.15819569955548, "lon": 89.50843743756087, "alt_km": 23235.700469710016, "timestamp": "2025-12-06T18:50:10.410650+00:00", "meta": {"OBJECT_NAME": "GSAT0211 (GALILEO 14)", "OBJECT_ID": "2016-030A", "EPOCH": "2025-12-05T19:26:55.320000", "MEAN_MOTION": 1.70472946, "ECCENTRICITY": 0.00039556, "INCLINATION": 55.1547, "RA_OF_ASC_NODE": 227.0144, "ARG_OF_PERICENTER": 12.8849, "MEAN_ANOMALY": 347.2228, "EPHEMERIS_TYPE": 0, "CLASSIFICATION_TYPE": "U", "NORAD_CAT_ID": 41549, "ELEMENT_SET_NO": 999, "REV_AT_EPOCH": 5937, "BSTAR": 0, "MEAN_MOTION_DOT": 3.5e-07, "MEAN_MOTION_DDOT": 0}, "tle": {"line1": "1 41549U 16030A   25339.81036250  .00000035  00000+0  00000+0 0  9996", "line2": "2 41549  55.1547 227.0144 0003955  12.8849 347.2228  1.70472946 59378"}}, "geometry": {"type": "Point", "coordinates": [89.50843743756087, -44.15819569955548]}}, {"type": "Feature", "properties": {"norad_id": 41550, "name": "GSAT0210 (GALILEO 13)", "group": "gnss", "lat": 53.953170050059995, "lon": -60.025903668659936, "alt_km": 23220.014596152916, "timestamp": "2025-12-06T18:50:10.410667+00:00", "meta": {"OBJECT_NAME": "GSAT0210 (GALILEO 13)", "OBJECT_ID": "2016-030B", "EPOCH": "2025-12-04T07:23:32.472672", "MEAN_MOTION": 1.70473512, "ECCENTRICITY": 0.0001419, "INCLINATION": 55.1546, "RA_OF_ASC_NODE": 227.0538, "ARG_OF_PERICENTER": 244.2228, "MEAN_ANOMALY": 115.8568, "EPHEMERIS_TYPE": 0, "CLASSIFICATION_TYPE": "U", "NORAD_CAT_ID": 41550, "ELEMENT_SET_NO": 999, "REV_AT_EPOCH": 5934, "BSTAR": 0, "MEAN_MOTION_DOT": 4e-07, "MEAN_MOTION_DDOT": 0}, "tle": {"line1": "1 41550U 16030B   25338.30801473  .00000040  00000+0  00000+0 0  9994", "line2": "2 41550  55.1546 227.0538 0001419 244.2228 115.8568  1.70473512 59344"}}, "geometry": {"type": "Point", "coordinates": [-60.025903668659936, 53.953170050059995]}}, {"type": "Feature", "properties": {"norad_id": 41586, "name": "BEIDOU-2 G7 (C03)", "group": "gnss", "lat": 1.1654498153722876, "lon": 108.85512380205498, "alt_km": 35772.068717692906, "timestamp": "2025-12-06T18:50:10.410685+00:00", "meta": {"OBJECT_NAME": "BEIDOU-2 G7 (C03)", "OBJECT_ID": "2016-037A", "EPOCH": "2025-12-06T00:29:39.710400", "MEAN_MOTION": 1.0027031, "ECCENTRICITY": 0.00043716, "INCLINATION": 1.7398, "RA_OF_ASC_NODE": 67.7245, "ARG_OF_PERICENTER": 2.0218, "MEAN_ANOMALY": 123.2221, "EPHEMERIS_TYPE": 0, "CLASSIFICATION_TYPE": "U", "NORAD_CAT_ID": 41586, "ELEMENT_SET_NO": 999, "REV_AT_EPOCH": 495, "BSTAR": 0, "MEAN_MOTION_DOT": -3.45e-06, "MEAN_MOTION_DDOT": 0}, "tle": {"line1": "1 41586U 16037A   25340.02059850 -.00000345  00000+0  00000+0 0  9995", "line2": "2 41586   1.7398  67.7245 0004371   2.0218 123.2221  1.00270310  4958"}}, "geometry": {"type": "Point", "coordinates": [108.85512380205498, 1.1654498153722876]}}, {"type": "Feature", "properties": {"norad_id": 41589, "name": "EUTELSAT 117 WEST B (WAAS/PRN 131)", "group": "gnss", "lat": 0.01789177342002935, "lon": -118.6642490010389, "alt_km": 35787.95312168384, "timestamp": "2025-12-06T18:50:10.410704+00:00", "meta": {"OBJECT_NAME": "EUTELSAT 117 WEST B (WAAS/PRN 131)", "OBJECT_ID": "2016-038B", "EPOCH": "2025-12-05T20:45:38.566944", "MEAN_MOTION": 1.00266552, "ECCENTRICITY": 3.952e-05, "INCLINATION": 0.0067, "RA_OF_ASC_NODE": 150.7186, "ARG_OF_PERICENTER": 345.3636, "MEAN_ANOMALY": 133.2375, "EPHEMERIS_TYPE": 0, "CLASSIFICATION_TYPE": "U", "NORAD_CAT_ID": 41589, "ELEMENT_SET_NO": 999, "REV_AT_EPOCH": 3472, "BSTAR": 0, "MEAN_MOTION_DOT": -1e-08, "MEAN_MOTION_DDOT": 0}, "tle": {"line1": "1 41589U 16038B   25339.86502971 -.00000001  00000+0  00000+0 0  9995", "line2": "2 41589   0.0067 150.7186 0000395 345.3636 133.2375  1.00266552 34724"}}, "geometry": {"type": "Point", "coordinates": [-118.6642490010389, 0.01789177342002935]}}, {"type": "Feature", "properties": {"norad_id": 41859, "name": "GSAT0207 (GALILEO 15)", "group": "gnss", "lat": -55.38007301607615, "lon": 15.166806997042439, "alt_km": 23224.569797990003, "timestamp": "2025-12-06T18:50:10.410722+00:00", "meta": {"OBJECT_NAME": "GSAT0207 (GALILEO 15)", "OBJECT_ID": "2016-069A", "EPOCH": "2025-12-03T23:59:33.819072", "MEAN_MOTION": 1.70474248, "ECCENTRICITY": 0.0002136, "INCLINATION": 55.3774, "RA_OF_ASC_NODE": 106.4923, "ARG_OF_PERICENTER": 325.6107, "MEAN_ANOMALY": 34.3288, "EPHEMERIS_TYPE": 0, "CLASSIFICATION_TYPE": "U", "NORAD_CAT_ID": 41859, "ELEMENT_SET_NO": 999, "REV_AT_EPOCH": 5607, "BSTAR": 0, "MEAN_MOTION_DOT": 1.5e-07, "MEAN_MOTION_DDOT": 0}, "tle": {"line1": "1 41859U 16069A   25337.99969698  .00000015  00000+0  00000+0 0  9998", "line2": "2 41859  55.3774 106.4923 0002136 325.6107  34.3288  1.70474248 56074"}}, "geometry": {"type": "Point", "coordinates": [15.166806997042439, -55.38007301607615]}}, {"type": "Feature", "properties": {"norad_id": 41860, "name": "GSAT0212 (GALILEO 16)", "group": "gnss", "lat": -0.7275178643538578, "lon": 105.8936754960708, "alt_km": 23216.988882511327, "timestamp": "2025-12-06T18:50:10.410742+00:00", "meta": {"OBJECT_NAME": "GSAT0212 (GALILEO 16)", "OBJECT_ID": "2016-069B", "EPOCH": "2025-12-06T04:47:33.838080", "MEAN_MOTION": 1.70474471, "ECCENTRICITY": 0.00022225, "INCLINATION": 55.376, "RA_OF_ASC_NODE": 106.4267, "ARG_OF_PERICENTER": 32.4045, "MEAN_ANOMALY": 327.5613, "EPHEMERIS_TYPE": 0, "CLASSIFICATION_TYPE": "U", "NORAD_CAT_ID": 41860, "ELEMENT_SET_NO": 999, "REV_AT_EPOCH": 5636, "BSTAR": 0, "MEAN_MOTION_DOT": 6e-08, "MEAN_MOTION_DDOT": 0}, "tle": {"line1": "1 41860U 16069B   25340.19969720  .00000006  00000+0  00000+0 0  9992", "line2": "2 41860  55.3760 106.4267 0002222  32.4045 327.5613  1.70474471 56361"}}, "geometry": {"type": "Point", "coordinates": [105.8936754960708, -0.7275178643538578]}}, {"type": "Feature", "properties": {"norad_id": 41861, "name": "GSAT0213 (GALILEO 17)", "group": "gnss", "lat": 36.630796078599154, "lon": -104.47214046161302, "alt_km": 23223.137290233175, "timestamp": "2025-12-06T18:50:10.410763+00:00", "meta": {"OBJECT_NAME": "GSAT0213 (GALILEO 17)", "OBJECT_ID": "2016-069C", "EPOCH": "2025-12-04T19:22:49.962144", "MEAN_MOTION": 1.70474712, "ECCENTRICITY": 0.00021375, "INCLINATION": 55.3775, "RA_OF_ASC_NODE": 106.4729, "ARG_OF_PERICENTER": 283.7545, "MEAN_ANOMALY": 76.173, "EPHEMERIS_TYPE": 0, "CLASSIFICATION_TYPE": "U", "NORAD_CAT_ID": 41861, "ELEMENT_SET_NO": 999, "REV_AT_EPOCH": 5620, "BSTAR": 0, "MEAN_MOTION_DOT": 1e-07, "MEAN_MOTION_DDOT": 0}, "tle": {"line1": "1 41861U 16069C   25338.80752271  .00000010  00000+0  00000+0 0  9994", "line2": "2 41861  55.3775 106.4729 0002137 283.7545  76.1730  1.70474712 56200"}}, "geometry": {"type": "Point", "coordinates": [-104.47214046161302, 36.630796078599154]}}, {"type": "Feature", "properties": {"norad_id": 41862, "name": "GSAT0214 (GALILEO 18)", "group": "gnss", "lat": 34.82110417354188, "lon": 135.0896973393446, "alt_km": 23219.22215444092, "timestamp": "2025-12-06T18:50:10.410783+00:00", "meta": {"OBJECT_NAME": "GSAT0214 (GALILEO 18)", "OBJECT_ID": "2016-069D", "EPOCH": "2025-12-05T12:57:44.455104", "MEAN_MOTION": 1.70474584, "ECCENTRICITY": 0.00011763, "INCLINATION": 55.3762, "RA_OF_ASC_NODE": 106.4455, "ARG_OF_PERICENTER": 291.0864, "MEAN_ANOMALY": 68.8522, "EPHEMERIS_TYPE": 0, "CLASSIFICATION_TYPE": "U", "NORAD_CAT_ID": 41862, "ELEMENT_SET_NO": 999, "REV_AT_EPOCH": 5634, "BSTAR": 0, "MEAN_MOTION_DOT": 8e-08, "MEAN_MOTION_DDOT": 0}, "tle": {"line1": "1 41862U 16069D   25339.54009786  .00000008  00000+0  00000+0 0  9990", "line2": "2 41862  55.3762 106.4455 0001176 291.0864  68.8522  1.70474584 56340"}}, "geometry": {"type": "Point", "coordinates": [135.0896973393446, 34.82110417354188]}}, {"type": "Feature", "properties": {"norad_id": 42709, "name": "SES-15 (WAAS/PRN 133)", "group": "gnss", "lat": -0.04118115829016594, "lon": -130.83134653592563, "alt_km": 35785.79648626982, "timestamp": "2025-12-06T18:50:10.410801+00:00", "meta": {"OBJECT_NAME": "SES-15 (WAAS/PRN 133)", "OBJECT_ID": "2017-026A", "EPOCH": "2025-12-06T05:56:29.518368", "MEAN_MOTION": 1.00267438, "ECCENTRICITY": 5.188e-05, "INCLINATION": 0.0199, "RA_OF_ASC_NODE": 346.6455, "ARG_OF_PERICENTER": 290.6826, "MEAN_ANOMALY": 117.914, "EPHEMERIS_TYPE": 0, "CLASSIFICATION_TYPE": "U", "NORAD_CAT_ID": 42709, "ELEMENT_SET_NO": 999, "REV_AT_EPOCH": 549, "BSTAR": 0, "MEAN_MOTION_DOT": 6.8e-07, "MEAN_MOTION_DDOT": 0}, "tle": {"line1": "1 42709U 17026A   25340.24756387  .00000068  00000+0  00000+0 0  9996", "line2": "2 42709   0.0199 346.6455 0000518 290.6826 117.9140  1.00267438  5495"}}, "geometry": {"type": "Point", "coordinates": [-130.83134653592563, -0.04118115829016594]}}, {"type": "Feature", "properties": {"norad_id": 42738, "name": "QZS-2 (QZSS/PRN 194)", "group": "gnss", "lat": -37.29765280018218, "lon": 132.27736384057494, "alt_km": 32736.61121365966, "timestamp": "2025-12-06T18:50:10.410820+00:00", "meta": {"OBJECT_NAME": "QZS-2 (QZSS/PRN 194)", "OBJECT_ID": "2017-028A", "EPOCH": "2025-12-05T14:20:02.331744", "MEAN_MOTION": 1.00284944, "ECCENTRICITY": 0.07587515, "INCLINATION": 39.7259, "RA_OF_ASC_NODE": 245.988, "ARG_OF_PERICENTER": 269.4031, "MEAN_ANOMALY": 275.8025, "EPHEMERIS_TYPE": 0, "CLASSIFICATION_TYPE": "U", "NORAD_CAT_ID": 42738, "ELEMENT_SET_NO": 999, "REV_AT_EPOCH": 568, "BSTAR": 0, "MEAN_MOTION_DOT": -1.57e-06, "MEAN_MOTION_DDOT": 0}, "tle": {"line1": "1 42738U 17028A   25339.59724921 -.00000157  00000+0  00000+0 0  9995", "line2": "2 42738  39.7259 245.9880 0758751 269.4031 275.8025  1.00284944  5685"}}, "geometry": {"type": "Point", "coordinates": [132.27736384057494, -37.29765280018218]}}]}